HORYU-4                 
1 41340U 16012D   20094.37793770  .00000498  00000-0  30922-4 0  9991
2 41340  31.0047  89.8762 0013952 123.8783 236.3182 15.01453802226588
E-ST@R-II               
1 41459U 16025D   20095.52889709  .00001990  00000-0  10293-3 0  9998
2 41459  98.0952 201.7121 0167108 100.4736 261.5359 15.06241147216311
AAUSAT 4                
1 41460U 16025E   20095.57803547  .00003561  00000-0  17627-3 0  9995
2 41460  98.0939 203.8374 0155609  90.1423 271.7645 15.08472775216509
DIWATA-1                
1 41463U 98067HT  20095.21974909  .01637318  12206-4  27230-3 0  9996
2 41463  51.6063 153.9452 0005545   1.5755 110.7458 16.32504145226065
BEESAT-4                
1 41619U 16040W   20094.83312000  .00001525  00000-0  66077-4 0  9997
2 41619  97.3278 156.1087 0012874  84.4285 275.8420 15.23816471198037
CANX-7                  
1 41788U 16059F   20095.50417715  .00007206  00000-0  10118-2 0  9993
2 41788  98.2496 181.5387 0033486 168.6191 191.5814 14.77350074188898
RAVAN                   
1 41849U 16067B   20094.75643561  .00000264  00000-0  27210-4 0  9996
2 41849  97.9246 203.3776 0009080 131.8241 228.3758 14.98487888185431
CELTEE 1                
1 41850U 16067C   20095.01784430  .00000013  00000-0  63818-5 0  9996
2 41850  97.9195 201.5866 0009683 132.3602 227.8441 14.97142932185364
OPTICUBE 04             
1 41851U 16067D   20095.00245292 -.00000443  00000-0 -33287-4 0  9999
2 41851  97.9193 201.2298 0009758 132.2674 227.9377 14.96901286185341
AEROCUBE 8D             
1 41852U 16067E   20094.75008482  .00000060  00000-0  10562-4 0  9993
2 41852  97.9194 200.8057 0010538 135.4140 224.7930 14.96865781185284
AEROCUBE 8C             
1 41853U 16067F   20094.77991840  .00000822  00000-0  76954-4 0  9998
2 41853  97.9200 200.7472 0011287 134.5994 225.6149 14.96836021185289
PROMETHEUS 2-1          
1 41854U 16067G   20094.76494327  .00000731  00000-0  68508-4 0  9991
2 41854  97.9201 201.0146 0011548 135.8413 224.3732 14.97127534185291
PROMETHEUS 2-3          
1 41855U 16067H   20094.76588147  .00000770  00000-0  71888-4 0  9994
2 41855  97.9203 201.0443 0011742 136.1337 224.0818 14.97137689185293
INS-1B                  
1 41954U 17008G   20095.18588140  .00001511  00000-0  64144-4 0  9991
2 41954  97.3615 160.8963 0008676 192.3313 167.7714 15.24596754174056
BGUSAT                  
1 41999U 17008BD  20094.72053267  .00002381  00000-0  92032-4 0  9999
2 41999  97.3718 164.1766 0007325 202.2412 157.8510 15.27191681173548
DIDO-2                  
1 42000U 17008BE  20095.46353770  .00000971  00000-0  42529-4 0  9996
2 42000  97.3623 161.6983 0007522 210.7632 149.3166 15.24357215173498
PEASSS                  
1 42015U 17008BV  20095.16714189  .00001336  00000-0  55660-4 0  9990
2 42015  97.3643 162.8609 0005306 212.5389 147.5523 15.25450878174028
AL-FARABI 1             
1 42016U 17008BW  20095.42486058  .00001673  00000-0  67360-4 0  9995
2 42016  97.3669 164.0410 0005251 209.7828 150.3112 15.26244957174235
NAYIF-1 (EO-88)         
1 42017U 17008BX  20095.40552738  .00001745  00000-0  70082-4 0  9998
2 42017  97.3662 164.0330 0005291 209.5554 150.5386 15.26284099174256
NSIGHT                  
1 42726U 98067MF  20095.12773321  .00317971  55099-4  53359-3 0  9991
2 42726  51.6241 242.7831 0007333 294.6334  65.3913 16.02241713163752
UCLSAT                  
1 42765U 17036A   20094.86992778  .00001249  00000-0  55427-4 0  9995
2 42765  97.3098 151.0853 0009647 292.0321  67.9891 15.23356527155224
LITUANICASAT-2          
1 42768U 17036D   20095.13367631  .00002034  00000-0  87286-4 0  9994
2 42768  97.3152 151.2070 0012936 278.2709  81.7061 15.23785651154521
AALTO-1                 
1 42775U 17036L   20095.28180069  .00000822  00000-0  39244-4 0  9990
2 42775  97.3078 149.5094 0012155 281.5255  78.4617 15.21731866154390
URSA MAIOR              
1 42776U 17036M   20094.88525804  .00000843  00000-0  39972-4 0  9997
2 42776  97.3089 149.3774 0011964 282.8085  77.1814 15.21901443154348
COMPASS 2               
1 42777U 17036N   20095.15008592  .00001834  00000-0  79246-4 0  9998
2 42777  97.3141 151.6656 0010556 279.9751  80.0295 15.23694470154488
DIAMOND RED             
1 42783U 17036U   20095.42275815  .00001056  00000-0  48222-4 0  9995
2 42783  97.3099 150.9663 0010332 291.5959  68.4176 15.22696202154481
PEGASUS                 
1 42784U 17036V   20095.40578591  .00001224  00000-0  54861-4 0  9994
2 42784  97.3103 151.3259 0010217 290.6445  69.3696 15.23057050154509
DIAMOND GREEN           
1 42785U 17036W   20094.83010562  .00001014  00000-0  46419-4 0  9997
2 42785  97.3102 150.4226 0010265 294.8419  65.1749 15.22693043154468
DIAMOND BLUE            
1 42786U 17036X   20094.82933576  .00000994  00000-0  45571-4 0  9990
2 42786  97.3102 150.4178 0010107 295.1156  64.9031 15.22694422154465
NUDTSAT                 
1 42787U 17036Y   20095.52451756  .00001600  00000-0  68302-4 0  9996
2 42787  97.3146 152.6707 0009994 291.3737  68.6435 15.24286336154430
SUCHAI                  
1 42788U 17036Z   20094.79928110  .00001385  00000-0  60773-4 0  9992
2 42788  97.3112 151.2565 0009761 291.5163  68.5033 15.23573916154512
SKCUBE                  
1 42789U 17036AA  20094.83792365  .00001291  00000-0  57070-4 0  9991
2 42789  97.3107 151.1687 0009636 291.6728  68.3482 15.23429043154438
VZLUSAT-1               
1 42790U 17036AB  20094.79086509  .00001710  00000-0  72849-4 0  9991
2 42790  97.3130 151.9518 0009064 289.2829  70.7428 15.24275825154476
ROBUSTA-1B              
1 42792U 17036AD  20095.39193268  .00001383  00000-0  60617-4 0  9997
2 42792  97.3107 151.9371 0009197 290.0113  70.0134 15.23617384154546
CICERO 6                
1 42793U 17036AE  20095.15135699  .00000964  00000-0  43881-4 0  9994
2 42793  97.3086 151.2022 0008572 294.3356  65.6986 15.23016815154559
D-SAT                   
1 42794U 17036AF  20095.36467717  .00000226  00000-0  25208-4 0  9991
2 42794  97.5027 131.6556 0124727 252.0509 106.7081 14.91243552151658
CORVUS BC2              
1 42846U 17042X   20095.40482614  .00000010  00000-0  61948-5 0  9997
2 42846  97.5334 342.2580 0010090 156.5587 203.6094 14.92078727148361
CORVUS BC1              
1 42847U 17042Y   20095.13730245 -.00000004  00000-0  48231-5 0  9998
2 42847  97.5337 342.1583 0009722 156.3496 203.8173 14.92179727148322
MIRATA                  
1 43015U 17073C   20094.74284826  .00001061  00000-0  88244-4 0  9995
2 43015  97.7213   9.7936 0252348 292.4660  65.0008 14.79530965128178
MAKERSAT 0              
1 43016U 17073D   20095.29192493  .00000762  00000-0  65155-4 0  9998
2 43016  97.7249  10.5142 0254967 291.5344  65.8866 14.79132361128230
ASTERIA                 
1 43020U 98067NH  20094.91034872  .00279185  44468-4  49438-3 0  9991
2 43020  51.6426 256.8641 0005129 324.0602  36.0063 16.01379775135734
DELLINGR (RBLE)         
1 43021U 98067NJ  20095.08014364  .00014926  00000-0  13252-3 0  9990
2 43021  51.6361 299.4083 0002150 139.8916 220.2239 15.68791852135184
AEROCUBE 7B (OCSD B)    
1 43042U 17071F   20094.83822272  .00003875  00000-0  95524-4 0  9990
2 43042  51.6373  72.5592 0004862 126.3307 233.8128 15.43070302130851
AEROCUBE 7C (OCSD C)    
1 43043U 17071G   20094.84036996  .00003810  00000-0  94166-4 0  9992
2 43043  51.6373  72.5883 0005039 130.4807 229.6619 15.43045743130829
CHEFSAT                 
1 43044U 17071H   20094.98361546  .00010145  00000-0  20361-3 0  9994
2 43044  51.6380  59.5337 0004756 132.3301 227.8090 15.47299836131015
ASGARDIA 1              
1 43049U 17071N   20094.83648947  .00003603  00000-0  89324-4 0  9992
2 43049  51.6384  71.8765 0002576 138.4101 221.7081 15.43118292130833
ISARA                   
1 43050U 17071P   20094.46853296  .00007756  00000-0  16238-3 0  9994
2 43050  51.6362  64.2429 0002497 132.7031 227.4167 15.46440758130909
PROPCUBE 2 (FAUNA)      
1 43052U 17071R   20094.84369046  .00003915  00000-0  94971-4 0  9997
2 43052  51.6377  70.4433 0002579 134.4142 225.7055 15.43529232130846
CORVUS BC3              
1 43118U 18004H   20094.73911837  .00000779  00000-0  35881-4 0  9996
2 43118  97.4499 165.6033 0009176 322.1807  37.8784 15.23250737123627
MICROMAS-2A             
1 43131U 18004W   20094.78843062  .00001966  00000-0  81616-4 0  9996
2 43131  97.4541 167.1284 0007953 322.0649  38.0028 15.25026915123714
SPACEBEE-4              
1 43139U 18004AE  20095.27610846  .00002937  00000-0  11632-3 0  9990
2 43139  97.4572 168.6233 0007172 321.5308  38.5418 15.26209260123833
SPACEBEE-3              
1 43140U 18004AF  20095.32758072  .00003827  00000-0  14710-3 0  9991
2 43140  97.4585 169.2486 0006793 319.5571  40.5162 15.27018272123889
SPACEBEE-2              
1 43141U 18004AG  20095.19025161  .00004109  00000-0  15645-3 0  9995
2 43141  97.4597 169.3243 0006759 319.3393  40.7340 15.27292899123875
SPACEBEE-1              
1 43142U 18004AH  20095.23992274  .00004482  00000-0  16878-3 0  9992
2 43142  97.4601 169.5927 0006717 318.7841  41.2890 15.27610522123882
CICERO 7                
1 43143U 18004AJ  20095.18584946  .00001987  00000-0  82286-4 0  9994
2 43143  97.4521 167.7202 0006356 333.6795  26.4119 15.25096329123793
GOMX-4B                 
1 43196U 18015E   20094.83949703  .00000441  00000-0  20991-4 0  9990
2 43196  97.4234 224.0019 0019368  12.0105 348.1589 15.24189123120533
GOMX-4A                 
1 43197U 18015F   20095.14693376  .00000910  00000-0  39916-4 0  9996
2 43197  97.4234 224.3741 0019466  11.4337 113.4400 15.24393541120590
1KUNS-PF                
1 43466U 98067NP  20094.96072252  .00105282  00000-0  39497-3 0  9994
2 43466  51.6287 284.8118 0003553 242.6757 117.3886 15.87040685108620
UBAKUSAT                
1 43467U 98067NQ  20095.18125568  .00032807  00000-0  25178-3 0  9992
2 43467  51.6334 302.9934 0001562 137.1248 222.9872 15.71755230108410
